{"type": "FeatureCollection", "features": [ {"type": "Feature", "properties": {"norad_id": 39122, "name": "EUTELSAT 117 WEST A", "group": "eutelsat", "lat": 0.024884432752187644, "lon": 51.26497479143017, "alt_km": 35796.730023696284, "timestamp": "2025-12-12T05:47:28.443389+00:00", "meta": {"OBJECT_NAME": "EUTELSAT 117 WEST A", "OBJECT_ID": "2013-012A", "EPOCH": "2025-12-11T23:13:43.760640", "MEAN_MOTION": 1.00271472, "ECCENTRICITY": 0.00029566, "INCLINATION": 0.0144, "RA_OF_ASC_NODE": 8.2993, "ARG_OF_PERICENTER": 255.3343, "MEAN_ANOMALY": 48.9131, "EPHEMERIS_TYPE": 0, "CLASSIFICATION_TYPE": "U", "NORAD_CAT_ID": 39122, "ELEMENT_SET_NO": 999, "REV_AT_EPOCH": 4655, "BSTAR": 0, "MEAN_MOTION_DOT": -4e-08, "MEAN_MOTION_DDOT": 0}, "tle": {"line1": "1 39122U 13012A   25345.96786760 -.00000004  00000+0  00000+0 0  9995", "line2": "2 39122   0.0144   8.2993 0002956 255.3343  48.9131  1.00271472 46556"}}, "geometry": {"type": "Point", "coordinates": [51.26497479143017, 0.024884432752187644]}}, {"type": "Feature", "properties": {"norad_id": 39163, "name": "EUTELSAT 7B", "group": "eutelsat", "lat": 0.0261620712128951, "lon": 175.01506387205126, "alt_km": 35801.06545382415, "timestamp": "2025-12-12T05:47:28.443402+00:00", "meta": {"OBJECT_NAME": "EUTELSAT 7B", "OBJECT_ID": "2013-022A", "EPOCH": "2025-12-11T22:06:18.182592", "MEAN_MOTION": 1.00272719, "ECCENTRICITY": 0.0004619, "INCLINATION": 0.0731, "RA_OF_ASC_NODE": 20.0166, "ARG_OF_PERICENTER": 296.9814, "MEAN_ANOMALY": 102.4454, "EPHEMERIS_TYPE": 0, "CLASSIFICATION_TYPE": "U", "NORAD_CAT_ID": 39163, "ELEMENT_SET_NO": 999, "REV_AT_EPOCH": 4607, "BSTAR": 0, "MEAN_MOTION_DOT": 5.7e-07, "MEAN_MOTION_DDOT": 0}, "tle": {"line1": "1 39163U 13022A   25345.92104378  .00000057  00000+0  00000+0 0  9993", "line2": "2 39163   0.0731  20.0166 0004619 296.9814 102.4454  1.00272719 46075"}}, "geometry": {"type": "Point", "coordinates": [175.01506387205126, 0.0261620712128951]}}, {"type": "Feature", "properties": {"norad_id": 39612, "name": "EXPRESS-AT1", "group": "eutelsat", "lat": -0.031936111078696504, "lon": -135.95417076463144, "alt_km": 35784.536647450805, "timestamp": "2025-12-12T05:47:28.443414+00:00", "meta": {"OBJECT_NAME": "EXPRESS-AT1", "OBJECT_ID": "2014-010A", "EPOCH": "2025-12-11T22:20:16.844064", "MEAN_MOTION": 1.00271479, "ECCENTRICITY": 3.871e-05, "INCLINATION": 0.0177, "RA_OF_ASC_NODE": 298.5169, "ARG_OF_PERICENTER": 275.6842, "MEAN_ANOMALY": 257.7452, "EPHEMERIS_TYPE": 0, "CLASSIFICATION_TYPE": "U", "NORAD_CAT_ID": 39612, "ELEMENT_SET_NO": 999, "REV_AT_EPOCH": 4294, "BSTAR": 0, "MEAN_MOTION_DOT": 8.7e-07, "MEAN_MOTION_DDOT": 0}, "tle": {"line1": "1 39612U 14010A   25345.93075051  .00000087  00000+0  00000+0 0  9999", "line2": "2 39612   0.0177 298.5169 0000387 275.6842 257.7452  1.00271479 42942"}}, "geometry": {"type": "Point", "coordinates": [-135.95417076463144, -0.031936111078696504]}}, {"type": "Feature", "properties": {"norad_id": 39613, "name": "EXPRESS-AT2", "group": "eutelsat", "lat": -0.0076874631661000324, "lon": -52.072086419545826, "alt_km": 35780.96285547507, "timestamp": "2025-12-12T05:47:28.443426+00:00", "meta": {"OBJECT_NAME": "EXPRESS-AT2", "OBJECT_ID": "2014-010B", "EPOCH": "2025-12-11T15:53:16.407744", "MEAN_MOTION": 1.00271778, "ECCENTRICITY": 0.00014239, "INCLINATION": 0.0193, "RA_OF_ASC_NODE": 312.5987, "ARG_OF_PERICENTER": 324.9998, "MEAN_ANOMALY": 181.2055, "EPHEMERIS_TYPE": 0, "CLASSIFICATION_TYPE": "U", "NORAD_CAT_ID": 39613, "ELEMENT_SET_NO": 999, "REV_AT_EPOCH": 4262, "BSTAR": 0, "MEAN_MOTION_DOT": -2.73e-06, "MEAN_MOTION_DDOT": 0}, "tle": {"line1": "1 39613U 14010B   25345.66199546 -.00000273  00000+0  00000+0 0  9994", "line2": "2 39613   0.0193 312.5987 0001423 324.9998 181.2055  1.00271778 42625"}}, "geometry": {"type": "Point", "coordinates": [-52.072086419545826, -0.0076874631661000324]}}, {"type": "Feature", "properties": {"norad_id": 39773, "name": "EUTELSAT 3B", "group": "eutelsat", "lat": -0.007989948182434094, "lon": 171.10680078740904, "alt_km": 35776.5855462097, "timestamp": "2025-12-12T05:47:28.443438+00:00", "meta": {"OBJECT_NAME": "EUTELSAT 3B", "OBJECT_ID": "2014-030A", "EPOCH": "2025-12-11T22:05:10.789728", "MEAN_MOTION": 1.00270349, "ECCENTRICITY": 0.00046045, "INCLINATION": 0.0612, "RA_OF_ASC_NODE": 347.6355, "ARG_OF_PERICENTER": 242.7733, "MEAN_ANOMALY": 184.8606, "EPHEMERIS_TYPE": 0, "CLASSIFICATION_TYPE": "U", "NORAD_CAT_ID": 39773, "ELEMENT_SET_NO": 999, "REV_AT_EPOCH": 4218, "BSTAR": 0, "MEAN_MOTION_DOT": 2.8e-07, "MEAN_MOTION_DDOT": 0}, "tle": {"line1": "1 39773U 14030A   25345.92026377  .00000028  00000+0  00000+0 0  9990", "line2": "2 39773   0.0612 347.6355 0004604 242.7733 184.8606  1.00270349 42189"}}, "geometry": {"type": "Point", "coordinates": [171.10680078740904, -0.007989948182434094]}}, {"type": "Feature", "properties": {"norad_id": 40425, "name": "EUTELSAT 115 WEST B", "group": "eutelsat", "lat": -0.013684445837302803, "lon": 53.15405038101789, "alt_km": 35786.10226786327, "timestamp": "2025-12-12T05:47:28.443450+00:00", "meta": {"OBJECT_NAME": "EUTELSAT 115 WEST B", "OBJECT_ID": "2015-010B", "EPOCH": "2025-12-11T23:14:13.712928", "MEAN_MOTION": 1.00272293, "ECCENTRICITY": 2.161e-05, "INCLINATION": 0.0398, "RA_OF_ASC_NODE": 160.8352, "ARG_OF_PERICENTER": 353.0477, "MEAN_ANOMALY": 160.6978, "EPHEMERIS_TYPE": 0, "CLASSIFICATION_TYPE": "U", "NORAD_CAT_ID": 40425, "ELEMENT_SET_NO": 999, "REV_AT_EPOCH": 3951, "BSTAR": 0, "MEAN_MOTION_DOT": -1.6e-07, "MEAN_MOTION_DDOT": 0}, "tle": {"line1": "1 40425U 15010B   25345.96821427 -.00000016  00000+0  00000+0 0  9996", "line2": "2 40425   0.0398 160.8352 0000216 353.0477 160.6978  1.00272293 39511"}}, "geometry": {"type": "Point", "coordinates": [53.15405038101789, -0.013684445837302803]}}, {"type": "Feature", "properties": {"norad_id": 40875, "name": "EUTELSAT 8 WEST B", "group": "eutelsat", "lat": 0.028804731524460076, "lon": 160.02151627272278, "alt_km": 35789.74663901993, "timestamp": "2025-12-12T05:47:28.443462+00:00", "meta": {"OBJECT_NAME": "EUTELSAT 8 WEST B", "OBJECT_ID": "2015-039B", "EPOCH": "2025-12-11T22:02:03.588576", "MEAN_MOTION": 1.0027162, "ECCENTRICITY": 0.00042017, "INCLINATION": 0.0653, "RA_OF_ASC_NODE": 6.34, "ARG_OF_PERICENTER": 255.4876, "MEAN_ANOMALY": 141.5745, "EPHEMERIS_TYPE": 0, "CLASSIFICATION_TYPE": "U", "NORAD_CAT_ID": 40875, "ELEMENT_SET_NO": 999, "REV_AT_EPOCH": 3777, "BSTAR": 0, "MEAN_MOTION_DOT": -5.7e-07, "MEAN_MOTION_DDOT": 0}, "tle": {"line1": "1 40875U 15039B   25345.91809709 -.00000057  00000+0  00000+0 0  9995", "line2": "2 40875   0.0653   6.3400 0004201 255.4876 141.5745  1.00271620 37777"}}, "geometry": {"type": "Point", "coordinates": [160.02151627272278, 0.028804731524460076]}}, {"type": "Feature", "properties": {"norad_id": 41310, "name": "EUTELSAT 9B", "group": "eutelsat", "lat": 0.030880474802517544, "lon": 177.00622448262934, "alt_km": 35787.53682476501, "timestamp": "2025-12-12T05:47:28.443474+00:00", "meta": {"OBJECT_NAME": "EUTELSAT 9B", "OBJECT_ID": "2016-005A", "EPOCH": "2025-12-11T22:06:55.623168", "MEAN_MOTION": 1.00269719, "ECCENTRICITY": 0.0004684, "INCLINATION": 0.0432, "RA_OF_ASC_NODE": 62.511, "ARG_OF_PERICENTER": 207.2212, "MEAN_ANOMALY": 151.8834, "EPHEMERIS_TYPE": 0, "CLASSIFICATION_TYPE": "U", "NORAD_CAT_ID": 41310, "ELEMENT_SET_NO": 999, "REV_AT_EPOCH": 3623, "BSTAR": 0, "MEAN_MOTION_DOT": 7e-07, "MEAN_MOTION_DDOT": 0}, "tle": {"line1": "1 41310U 16005A   25345.92147712  .00000070  00000+0  00000+0 0  9998", "line2": "2 41310   0.0432  62.5110 0004684 207.2212 151.8834  1.00269719 36232"}}, "geometry": {"type": "Point", "coordinates": [177.00622448262934, 0.030880474802517544]}}, {"type": "Feature", "properties": {"norad_id": 41382, "name": "EUTELSAT 65 WEST A", "group": "eutelsat", "lat": 0.06600660427513061, "lon": 102.84735091366859, "alt_km": 35796.39639964281, "timestamp": "2025-12-12T05:47:28.443491+00:00", "meta": {"OBJECT_NAME": "EUTELSAT 65 WEST A", "OBJECT_ID": "2016-014A", "EPOCH": "2025-12-11T23:28:27.350112", "MEAN_MOTION": 1.00272135, "ECCENTRICITY": 0.00025399, "INCLINATION": 0.0516, "RA_OF_ASC_NODE": 12.3148, "ARG_OF_PERICENTER": 255.844, "MEAN_ANOMALY": 99.687, "EPHEMERIS_TYPE": 0, "CLASSIFICATION_TYPE": "U", "NORAD_CAT_ID": 41382, "ELEMENT_SET_NO": 999, "REV_AT_EPOCH": 3565, "BSTAR": 0, "MEAN_MOTION_DOT": -2.68e-06, "MEAN_MOTION_DDOT": 0}, "tle": {"line1": "1 41382U 16014A   25345.97809433 -.00000268  00000+0  00000+0 0  9997", "line2": "2 41382   0.0516  12.3148 0002539 255.8440  99.6870  1.00272135 35657"}}, "geometry": {"type": "Point", "coordinates": [102.84735091366859, 0.06600660427513061]}}, {"type": "Feature", "properties": {"norad_id": 41589, "name": "EUTELSAT 117 WEST B", "group": "eutelsat", "lat": -0.0094327066316838, "lon": 51.08233796565814, "alt_km": 35782.434041936416, "timestamp": "2025-12-12T05:47:28.443503+00:00", "meta": {"OBJECT_NAME": "EUTELSAT 117 WEST B", "OBJECT_ID": "2016-038B", "EPOCH": "2025-12-11T23:13:36.273216", "MEAN_MOTION": 1.00275784, "ECCENTRICITY": 5.992e-05, "INCLINATION": 0.0087, "RA_OF_ASC_NODE": 154.6922, "ARG_OF_PERICENTER": 250.9411, "MEAN_ANOMALY": 266.7128, "EPHEMERIS_TYPE": 0, "CLASSIFICATION_TYPE": "U", "NORAD_CAT_ID": 41589, "ELEMENT_SET_NO": 999, "REV_AT_EPOCH": 3478, "BSTAR": 0, "MEAN_MOTION_DOT": -4e-08, "MEAN_MOTION_DDOT": 0}, "tle": {"line1": "1 41589U 16038B   25345.96778094 -.00000004  00000+0  00000+0 0  9997", "line2": "2 41589   0.0087 154.6922 0000599 250.9411 266.7128  1.00275784 34786"}}, "geometry": {"type": "Point", "coordinates": [51.08233796565814, -0.0094327066316838]}}]}